[
    {
        "Altitude(m)": 605459.0476835216,
        "Argument of Periapsis(deg)": 0.0,
        "Eccentricity": 0.0,
        "Inclination(deg)": 60.0,
        "Latitude(deg)": 27.98827532186571,
        "Longitude(deg)": 162.7986334354433,
        "Mean Anomaly(deg)": 32.72730000000001,
        "RAAN(deg)": 245.0,
        "Satellite Name": "Test1 1080",
        "Satellite Number": 1080,
        "Semi-Major Axis(m)": 6980739.136638005,
        "Time(s)": 0
    },
    {
        "Altitude(m)": 605535.8387486532,
        "Argument of Periapsis(deg)": 0.00010418945913296404,
        "Eccentricity": 0.0,
        "Inclination(deg)": 60.0,
        "Latitude(deg)": 28.501404248265477,
        "Longitude(deg)": 163.15557977412584,
        "Mean Anomaly(deg)": 33.34740614546182,
        "RAAN(deg)": 244.99957995086027,
        "Satellite Name": "Test1 1080",
        "Satellite Number": 1080,
        "Semi-Major Axis(m)": 6980739.136638005,
        "Time(s)": 10
    }
]